start=new Date('2022-09-05T00:00:00.000Z').valueOf();
sats=[{"REF_FRAME":"TEME","SEMIMAJOR_AXIS":"6925.285","PERIAPSIS":"545.830","CLASSIFICATION_TYPE":"U","MEAN_ELEMENT_THEORY":"SGP4","RCS_SIZE":"LARGE","EPHEMERIS_TYPE":"0","TLE_LINE2":"2 48595  53.0528 136.5026 0001906  49.5269 310.5886 15.06420642 73113","REV_AT_EPOCH":"7311","BSTAR":"0.00079976000000","MEAN_MOTION_DDOT":"0.0000000000000","MEAN_MOTION_DOT":"0.00011657","MEAN_MOTION":"15.06420642","ELEMENT_SET_NO":"999","DECAY_DATE":null,"NORAD_CAT_ID":"48595","TLE_LINE1":"1 48595U 21041AU  22247.74492340  .00011657  00000-0  79976-3 0  9990","CENTER_NAME":"EARTH","OBJECT_TYPE":"PAYLOAD","OBJECT_NAME":"STARLINK-2252","GP_ID":"211750220","FILE":"3558394","OBJECT_ID":"2021-041AU","APOAPSIS":"548.470","COUNTRY_CODE":"US","INCLINATION":"53.0528","ECCENTRICITY":"0.00019060","EPOCH":"2022-09-04T17:52:41.381760","SITE":"AFETR","PERIOD":"95.591","LAUNCH_DATE":"2021-05-15","ARG_OF_PERICENTER":"49.5269","MEAN_ANOMALY":"310.5886","TIME_SYSTEM":"UTC","RA_OF_ASC_NODE":"136.5026"},{"ECCENTRICITY":"0.00016420","EPOCH":"2022-09-04T02:29:09.329280","INCLINATION":"53.0541","PERIOD":"95.592","SITE":"AFETR","LAUNCH_DATE":"2021-05-15","ARG_OF_PERICENTER":"76.3445","MEAN_ANOMALY":"283.7727","TIME_SYSTEM":"UTC","RA_OF_ASC_NODE":"139.3788","MEAN_ELEMENT_THEORY":"SGP4","PERIAPSIS":"546.062","CLASSIFICATION_TYPE":"U","SEMIMAJOR_AXIS":"6925.334","REF_FRAME":"TEME","RCS_SIZE":"LARGE","BSTAR":"0.00000617530000","MEAN_MOTION_DDOT":"0.0000000000000","REV_AT_EPOCH":"7220","TLE_LINE2":"2 48596  53.0541 139.3788 0001642  76.3445 283.7727 15.06404763 72206","EPHEMERIS_TYPE":"0","MEAN_MOTION_DOT":"-0.00000190","MEAN_MOTION":"15.06404763","ELEMENT_SET_NO":"999","NORAD_CAT_ID":"48596","DECAY_DATE":null,"TLE_LINE1":"1 48596U 21041AV  22247.10358020 -.00000190  00000-0  61753-5 0  9994","OBJECT_TYPE":"PAYLOAD","OBJECT_NAME":"STARLINK-2253","CENTER_NAME":"EARTH","FILE":"3557975","GP_ID":"211717646","COUNTRY_CODE":"US","APOAPSIS":"548.336","OBJECT_ID":"2021-041AV"},{"PERIOD":"95.592","SITE":"AFETR","LAUNCH_DATE":"2021-05-15","INCLINATION":"53.0527","EPOCH":"2022-09-04T04:15:18.253440","ECCENTRICITY":"0.00015390","TIME_SYSTEM":"UTC","MEAN_ANOMALY":"278.1267","RA_OF_ASC_NODE":"139.0419","ARG_OF_PERICENTER":"81.9897","TLE_LINE2":"2 48597  53.0527 139.0419 0001539  81.9897 278.1267 15.06406658 73020","REV_AT_EPOCH":"7302","BSTAR":"0.00012953000000","MEAN_MOTION_DDOT":"0.0000000000000","EPHEMERIS_TYPE":"0","ELEMENT_SET_NO":"999","MEAN_MOTION":"15.06406658","MEAN_MOTION_DOT":"0.00001649","PERIAPSIS":"546.127","CLASSIFICATION_TYPE":"U","MEAN_ELEMENT_THEORY":"SGP4","REF_FRAME":"TEME","SEMIMAJOR_AXIS":"6925.328","RCS_SIZE":"LARGE","GP_ID":"211716904","FILE":"3557975","APOAPSIS":"548.259","COUNTRY_CODE":"US","OBJECT_ID":"2021-041AW","NORAD_CAT_ID":"48597","DECAY_DATE":null,"TLE_LINE1":"1 48597U 21041AW  22247.17729460  .00001649  00000-0  12953-3 0  9997","OBJECT_TYPE":"PAYLOAD","CENTER_NAME":"EARTH","OBJECT_NAME":"STARLINK-2255"},{"RA_OF_ASC_NODE":"137.5414","MEAN_ANOMALY":"282.5873","TIME_SYSTEM":"UTC","ARG_OF_PERICENTER":"77.5263","LAUNCH_DATE":"2021-05-15","SITE":"AFETR","PERIOD":"95.591","INCLINATION":"53.0551","ECCENTRICITY":"0.00013160","EPOCH":"2022-09-04T12:18:17.517600","OBJECT_ID":"2021-041AX","APOAPSIS":"548.081","COUNTRY_CODE":"US","GP_ID":"211717154","FILE":"3557975","TLE_LINE1":"1 48598U 21041AX  22247.51270275  .00001490  00000-0  11884-3 0  9997","CENTER_NAME":"EARTH","OBJECT_TYPE":"PAYLOAD","OBJECT_NAME":"STARLINK-2256","DECAY_DATE":null,"NORAD_CAT_ID":"48598","MEAN_MOTION":"15.06414320","MEAN_MOTION_DOT":"0.00001490","ELEMENT_SET_NO":"999","EPHEMERIS_TYPE":"0","REV_AT_EPOCH":"7226","TLE_LINE2":"2 48598  53.0551 137.5414 0001316  77.5263 282.5873 15.06414320 72269","BSTAR":"0.00011884000000","MEAN_MOTION_DDOT":"0.0000000000000","RCS_SIZE":"LARGE","REF_FRAME":"TEME","SEMIMAJOR_AXIS":"6925.305","CLASSIFICATION_TYPE":"U","PERIAPSIS":"546.258","MEAN_ELEMENT_THEORY":"SGP4"},{"MEAN_MOTION":"15.06408428","ELEMENT_SET_NO":"999","MEAN_MOTION_DOT":"0.00002040","EPHEMERIS_TYPE":"0","REV_AT_EPOCH":"7345","TLE_LINE2":"2 48599  53.0557 111.8325 0001510  83.3401 276.7759 15.06408428 73459","BSTAR":"0.00015580000000","MEAN_MOTION_DDOT":"0.0000000000000","RCS_SIZE":"LARGE","REF_FRAME":"TEME","SEMIMAJOR_AXIS":"6925.323","CLASSIFICATION_TYPE":"U","PERIAPSIS":"546.142","MEAN_ELEMENT_THEORY":"SGP4","OBJECT_ID":"2021-041AY","APOAPSIS":"548.233","COUNTRY_CODE":"US","GP_ID":"211750721","FILE":"3558394","TLE_LINE1":"1 48599U 21041AY  22247.67166734  .00002040  00000-0  15580-3 0  9998","CENTER_NAME":"EARTH","OBJECT_TYPE":"PAYLOAD","OBJECT_NAME":"STARLINK-2274","DECAY_DATE":null,"NORAD_CAT_ID":"48599","LAUNCH_DATE":"2021-05-15","SITE":"AFETR","PERIOD":"95.592","INCLINATION":"53.0557","ECCENTRICITY":"0.00015100","EPOCH":"2022-09-04T16:07:12.058176","RA_OF_ASC_NODE":"111.8325","MEAN_ANOMALY":"276.7759","TIME_SYSTEM":"UTC","ARG_OF_PERICENTER":"83.3401"},{"RCS_SIZE":"LARGE","PERIAPSIS":"546.240","CLASSIFICATION_TYPE":"U","MEAN_ELEMENT_THEORY":"SGP4","REF_FRAME":"TEME","SEMIMAJOR_AXIS":"6925.335","MEAN_MOTION":"15.06404554","ELEMENT_SET_NO":"999","MEAN_MOTION_DOT":"0.00003657","TLE_LINE2":"2 48600  53.0556 126.0568 0001386  90.2629 269.8519 15.06404554 73260","REV_AT_EPOCH":"7326","MEAN_MOTION_DDOT":"0.0000000000000","BSTAR":"0.00026421000000","EPHEMERIS_TYPE":"0","TLE_LINE1":"1 48600U 21041AZ  22247.84168049  .00003657  00000-0  26421-3 0  9992","OBJECT_NAME":"STARLINK-2275","OBJECT_TYPE":"PAYLOAD","CENTER_NAME":"EARTH","NORAD_CAT_ID":"48600","DECAY_DATE":null,"APOAPSIS":"548.159","COUNTRY_CODE":"US","OBJECT_ID":"2021-041AZ","GP_ID":"211750969","FILE":"3558394","INCLINATION":"53.0556","EPOCH":"2022-09-04T20:12:01.194336","ECCENTRICITY":"0.00013860","LAUNCH_DATE":"2021-05-15","PERIOD":"95.592","SITE":"AFETR","ARG_OF_PERICENTER":"90.2629","RA_OF_ASC_NODE":"126.0568","TIME_SYSTEM":"UTC","MEAN_ANOMALY":"269.8519"},{"RCS_SIZE":"LARGE","MEAN_ELEMENT_THEORY":"SGP4","PERIAPSIS":"546.088","CLASSIFICATION_TYPE":"U","SEMIMAJOR_AXIS":"6925.331","REF_FRAME":"TEME","ELEMENT_SET_NO":"999","MEAN_MOTION":"15.06405742","MEAN_MOTION_DOT":"0.00001944","MEAN_MOTION_DDOT":"0.0000000000000","BSTAR":"0.00014935000000","REV_AT_EPOCH":"7334","TLE_LINE2":"2 48602  53.0539 114.6568 0001600  81.7769 278.3401 15.06405742 73349","EPHEMERIS_TYPE":"0","TLE_LINE1":"1 48602U 21041BB  22247.04137811  .00001944  00000-0  14935-3 0  9993","OBJECT_NAME":"STARLINK-2713","OBJECT_TYPE":"PAYLOAD","CENTER_NAME":"EARTH","NORAD_CAT_ID":"48602","DECAY_DATE":null,"COUNTRY_CODE":"US","APOAPSIS":"548.304","OBJECT_ID":"2021-041BB","FILE":"3557975","GP_ID":"211716404","EPOCH":"2022-09-04T00:59:35.068704","ECCENTRICITY":"0.00016000","INCLINATION":"53.0539","LAUNCH_DATE":"2021-05-15","PERIOD":"95.592","SITE":"AFETR","ARG_OF_PERICENTER":"81.7769","RA_OF_ASC_NODE":"114.6568","TIME_SYSTEM":"UTC","MEAN_ANOMALY":"278.3401"},{"ARG_OF_PERICENTER":"72.3747","MEAN_ANOMALY":"287.7413","TIME_SYSTEM":"UTC","RA_OF_ASC_NODE":"106.1607","ECCENTRICITY":"0.00015730","EPOCH":"2022-09-04T19:36:09.298656","INCLINATION":"53.0535","PERIOD":"95.592","SITE":"AFETR","LAUNCH_DATE":"2021-05-15","NORAD_CAT_ID":"48603","DECAY_DATE":null,"TLE_LINE1":"1 48603U 21041BC  22247.81677429  .00003630  00000-0  26239-3 0  9997","OBJECT_TYPE":"PAYLOAD","OBJECT_NAME":"STARLINK-2714","CENTER_NAME":"EARTH","FILE":"3558394","GP_ID":"211751461","COUNTRY_CODE":"US","APOAPSIS":"548.275","OBJECT_ID":"2021-041BC","MEAN_ELEMENT_THEORY":"SGP4","CLASSIFICATION_TYPE":"U","PERIAPSIS":"546.096","SEMIMAJOR_AXIS":"6925.320","REF_FRAME":"TEME","RCS_SIZE":"LARGE","BSTAR":"0.00026239000000","MEAN_MOTION_DDOT":"0.0000000000000","TLE_LINE2":"2 48603  53.0535 106.1607 0001573  72.3747 287.7413 15.06409216 73546","REV_AT_EPOCH":"7354","EPHEMERIS_TYPE":"0","MEAN_MOTION_DOT":"0.00003630","ELEMENT_SET_NO":"999","MEAN_MOTION":"15.06409216"},{"OBJECT_NAME":"STARLINK-2757","TLE_LINE1":"1 48604U 21041BD  22247.42056832  .00005568  00000-0  39229-3 0  9999","OBJECT_TYPE":"PAYLOAD","CENTER_NAME":"EARTH","DECAY_DATE":null,"NORAD_CAT_ID":"48604","OBJECT_ID":"2021-041BD","APOAPSIS":"548.311","COUNTRY_CODE":"US","GP_ID":"211717906","FILE":"3557975","RCS_SIZE":"LARGE","REF_FRAME":"TEME","SEMIMAJOR_AXIS":"6925.313","CLASSIFICATION_TYPE":"U","PERIAPSIS":"546.045","MEAN_ELEMENT_THEORY":"SGP4","MEAN_MOTION":"15.06411495","ELEMENT_SET_NO":"999","MEAN_MOTION_DOT":"0.00005568","EPHEMERIS_TYPE":"0","REV_AT_EPOCH":"7306","TLE_LINE2":"2 48604  53.0536 137.9562 0001636  75.0252 285.0918 15.06411495 73061","MEAN_MOTION_DDOT":"0.0000000000000","BSTAR":"0.00039229000000","ARG_OF_PERICENTER":"75.0252","RA_OF_ASC_NODE":"137.9562","MEAN_ANOMALY":"285.0918","TIME_SYSTEM":"UTC","INCLINATION":"53.0536","ECCENTRICITY":"0.00016360","EPOCH":"2022-09-04T10:05:37.102848","LAUNCH_DATE":"2021-05-15","SITE":"AFETR","PERIOD":"95.591"},{"MEAN_MOTION":"15.06393903","ELEMENT_SET_NO":"999","MEAN_MOTION_DOT":"0.00000877","TLE_LINE2":"2 48638  53.0542 114.6639 0001390  87.1565 272.9583 15.06393903 71356","REV_AT_EPOCH":"7135","MEAN_MOTION_DDOT":"0.0000000000000","BSTAR":"0.00007779600000","EPHEMERIS_TYPE":"0","RCS_SIZE":"LARGE","PERIAPSIS":"546.270","CLASSIFICATION_TYPE":"U","MEAN_ELEMENT_THEORY":"SGP4","REF_FRAME":"TEME","SEMIMAJOR_AXIS":"6925.367","APOAPSIS":"548.195","COUNTRY_CODE":"US","OBJECT_ID":"2021-044A","GP_ID":"211721828","FILE":"3558050","OBJECT_NAME":"STARLINK-2758","TLE_LINE1":"1 48638U 21044A   22247.04043447  .00000877  00000-0  77796-4 0  9995","OBJECT_TYPE":"PAYLOAD","CENTER_NAME":"EARTH","NORAD_CAT_ID":"48638","DECAY_DATE":null,"LAUNCH_DATE":"2021-05-26","PERIOD":"95.593","SITE":"AFETR","INCLINATION":"53.0542","ECCENTRICITY":"0.00013900","EPOCH":"2022-09-04T00:58:13.538208","RA_OF_ASC_NODE":"114.6639","MEAN_ANOMALY":"272.9583","TIME_SYSTEM":"UTC","ARG_OF_PERICENTER":"87.1565"}];
